{
  "type": "FeatureCollection",
  "features": [
    {
      "type": "Feature",
      "properties": {
        "norad_id": 41581,
        "name": "INTELSAT 31 (IS-31)",
        "group": "intelsat",
        "lat": 0.0013576542052986607,
        "lon": -52.62481466999338,
        "alt_km": 35786.471785686284,
        "timestamp": "2025-12-09T21:34:11.074988+00:00",
        "meta_object_name": "INTELSAT 31 (IS-31)",
        "meta_object_id": "2016-035A",
        "meta_epoch": "2025-12-09T11:18:23.865120",
        "meta_mean_motion": 1.00269264,
        "meta_eccentricity": 0.00018649,
        "meta_inclination": 0.0173,
        "meta_ra_of_asc_node": 272.0152,
        "meta_arg_of_pericenter": 307.5396,
        "meta_mean_anomaly": 293.4379,
        "meta_ephemeris_type": 0,
        "meta_classification_type": "U",
        "meta_norad_cat_id": 41581,
        "meta_element_set_no": 999,
        "meta_rev_at_epoch": 3478,
        "meta_bstar": 0,
        "meta_mean_motion_dot": -1.48e-06,
        "meta_mean_motion_ddot": 0,
        "tle_line1": "1 41581U 16035A   25343.47110955 -.00000148  00000+0  00000+0 0  9995",
        "tle_line2": "2 41581   0.0173 272.0152 0001864 307.5396 293.4379  1.00269264 34782"
      },
      "geometry": {
        "type": "Point",
        "coordinates": [
          -52.62481466999338,
          0.0013576542052986607
        ]
      }
    },
    {
      "type": "Feature",
      "properties": {
        "norad_id": 41747,
        "name": "INTELSAT 36 (IS-36)",
        "group": "intelsat",
        "lat": 0.027025047960049384,
        "lon": 110.92338699506425,
        "alt_km": 35791.96866270402,
        "timestamp": "2025-12-09T21:34:11.075000+00:00",
        "meta_object_name": "INTELSAT 36 (IS-36)",
        "meta_object_id": "2016-053A",
        "meta_epoch": "2025-12-09T10:28:32.982240",
        "meta_mean_motion": 1.00269892,
        "meta_eccentricity": 0.00014122,
        "meta_inclination": 0.0115,
        "meta_ra_of_asc_node": 359.5133,
        "meta_arg_of_pericenter": 316.9203,
        "meta_mean_anomaly": 347.6248,
        "meta_ephemeris_type": 0,
        "meta_classification_type": "U",
        "meta_norad_cat_id": 41747,
        "meta_element_set_no": 999,
        "meta_rev_at_epoch": 3404,
        "meta_bstar": 0,
        "meta_mean_motion_dot": -2.2e-07,
        "meta_mean_motion_ddot": 0,
        "tle_line1": "1 41747U 16053A   25343.43649285 -.00000022  00000+0  00000+0 0  9999",
        "tle_line2": "2 41747   0.0115 359.5133 0001412 316.9203 347.6248  1.00269892 34045"
      },
      "geometry": {
        "type": "Point",
        "coordinates": [
          110.92338699506425,
          0.027025047960049384
        ]
      }
    },
    {
      "type": "Feature",
      "properties": {
        "norad_id": 41945,
        "name": "INTELSAT 32E (IS-32E)",
        "group": "intelsat",
        "lat": -0.017170152359410346,
        "lon": -0.7521638801898664,
        "alt_km": 35785.00314969515,
        "timestamp": "2025-12-09T21:34:11.075012+00:00",
        "meta_object_name": "INTELSAT 32E (IS-32E)",
        "meta_object_id": "2017-007B",
        "meta_epoch": "2025-12-09T11:39:18.704160",
        "meta_mean_motion": 1.00269368,
        "meta_eccentricity": 4.309e-05,
        "meta_inclination": 0.0272,
        "meta_ra_of_asc_node": 68.2271,
        "meta_arg_of_pericenter": 288.178,
        "meta_mean_anomaly": 213.7239,
        "meta_ephemeris_type": 0,
        "meta_classification_type": "U",
        "meta_norad_cat_id": 41945,
        "meta_element_set_no": 999,
        "meta_rev_at_epoch": 3232,
        "meta_bstar": 0,
        "meta_mean_motion_dot": -2.67e-06,
        "meta_mean_motion_ddot": 0,
        "tle_line1": "1 41945U 17007B   25343.48563315 -.00000267  00000+0  00000+0 0  9994",
        "tle_line2": "2 41945   0.0272  68.2271 0000430 288.1780 213.7239  1.00269368 32325"
      },
      "geometry": {
        "type": "Point",
        "coordinates": [
          -0.7521638801898664,
          -0.017170152359410346
        ]
      }
    },
    {
      "type": "Feature",
      "properties": {
        "norad_id": 42818,
        "name": "INTELSAT 35E (IS-35E)",
        "group": "intelsat",
        "lat": 0.01988798944762811,
        "lon": 7.946988340526426,
        "alt_km": 35788.95961370232,
        "timestamp": "2025-12-09T21:34:11.075023+00:00",
        "meta_object_name": "INTELSAT 35E (IS-35E)",
        "meta_object_id": "2017-041A",
        "meta_epoch": "2025-12-09T09:59:05.804160",
        "meta_mean_motion": 1.00269353,
        "meta_eccentricity": 0.00023078,
        "meta_inclination": 0.0186,
        "meta_ra_of_asc_node": 333.6977,
        "meta_arg_of_pericenter": 291.5297,
        "meta_mean_anomaly": 288.4535,
        "meta_ephemeris_type": 0,
        "meta_classification_type": "U",
        "meta_norad_cat_id": 42818,
        "meta_element_set_no": 999,
        "meta_rev_at_epoch": 3091,
        "meta_bstar": 0,
        "meta_mean_motion_dot": -2.36e-06,
        "meta_mean_motion_ddot": 0,
        "tle_line1": "1 42818U 17041A   25343.41603940 -.00000236  00000+0  00000+0 0  9990",
        "tle_line2": "2 42818   0.0186 333.6977 0002307 291.5297 288.4535  1.00269353 30912"
      },
      "geometry": {
        "type": "Point",
        "coordinates": [
          7.946988340526426,
          0.01988798944762811
        ]
      }
    },
    {
      "type": "Feature",
      "properties": {
        "norad_id": 42950,
        "name": "INTELSAT 37E (IS-37E)",
        "group": "intelsat",
        "lat": 0.014488152635823153,
        "lon": 24.4533527526982,
        "alt_km": 35795.70220687683,
        "timestamp": "2025-12-09T21:34:11.075035+00:00",
        "meta_object_name": "INTELSAT 37E (IS-37E)",
        "meta_object_id": "2017-059A",
        "meta_epoch": "2025-12-09T10:03:50.348736",
        "meta_mean_motion": 1.00270735,
        "meta_eccentricity": 0.00033791,
        "meta_inclination": 0.0166,
        "meta_ra_of_asc_node": 10.0825,
        "meta_arg_of_pericenter": 243.6968,
        "meta_mean_anomaly": 317.5906,
        "meta_ephemeris_type": 0,
        "meta_classification_type": "U",
        "meta_norad_cat_id": 42950,
        "meta_element_set_no": 999,
        "meta_rev_at_epoch": 3016,
        "meta_bstar": 0,
        "meta_mean_motion_dot": -1.39e-06,
        "meta_mean_motion_ddot": 0,
        "tle_line1": "1 42950U 17059A   25343.41933274 -.00000139  00000+0  00000+0 0  9994",
        "tle_line2": "2 42950   0.0166  10.0825 0003379 243.6968 317.5906  1.00270735 30167"
      },
      "geometry": {
        "type": "Point",
        "coordinates": [
          24.4533527526982,
          0.014488152635823153
        ]
      }
    },
    {
      "type": "Feature",
      "properties": {
        "norad_id": 43632,
        "name": "AZERSPACE 2 (IS-38)",
        "group": "intelsat",
        "lat": 0.03400439202468008,
        "lon": 87.53001695375181,
        "alt_km": 35792.87008496155,
        "timestamp": "2025-12-09T21:34:11.075046+00:00",
        "meta_object_name": "AZERSPACE 2 (IS-38)",
        "meta_object_id": "2018-074A",
        "meta_epoch": "2025-12-09T13:47:13.951392",
        "meta_mean_motion": 1.00270529,
        "meta_eccentricity": 0.00015419,
        "meta_inclination": 0.0155,
        "meta_ra_of_asc_node": 340.9903,
        "meta_arg_of_pericenter": 279.6716,
        "meta_mean_anomaly": 69.8172,
        "meta_ephemeris_type": 0,
        "meta_classification_type": "U",
        "meta_norad_cat_id": 43632,
        "meta_element_set_no": 999,
        "meta_rev_at_epoch": 2654,
        "meta_bstar": 0,
        "meta_mean_motion_dot": 1.39e-06,
        "meta_mean_motion_ddot": 0,
        "tle_line1": "1 43632U 18074A   25343.57446703  .00000139  00000+0  00000+0 0  9992",
        "tle_line2": "2 43632   0.0155 340.9903 0001541 279.6716  69.8172  1.00270529 26544"
      },
      "geometry": {
        "type": "Point",
        "coordinates": [
          87.53001695375181,
          0.03400439202468008
        ]
      }
    },
    {
      "type": "Feature",
      "properties": {
        "norad_id": 43633,
        "name": "HORIZONS-3E",
        "group": "intelsat",
        "lat": -0.007426957511324976,
        "lon": -148.58126309394643,
        "alt_km": 35786.04525480821,
        "timestamp": "2025-12-09T21:34:11.075058+00:00",
        "meta_object_name": "HORIZONS-3E",
        "meta_object_id": "2018-074B",
        "meta_epoch": "2025-12-09T12:58:38.887104",
        "meta_mean_motion": 1.00268186,
        "meta_eccentricity": 0.00012718,
        "meta_inclination": 0.0428,
        "meta_ra_of_asc_node": 176.1324,
        "meta_arg_of_pericenter": 114.3524,
        "meta_mean_anomaly": 151.719,
        "meta_ephemeris_type": 0,
        "meta_classification_type": "U",
        "meta_norad_cat_id": 43633,
        "meta_element_set_no": 999,
        "meta_rev_at_epoch": 2643,
        "meta_bstar": 0,
        "meta_mean_motion_dot": -2.9e-07,
        "meta_mean_motion_ddot": 0,
        "tle_line1": "1 43633U 18074B   25343.54072786 -.00000029  00000+0  00000+0 0  9995",
        "tle_line2": "2 43633   0.0428 176.1324 0001271 114.3524 151.7190  1.00268186 26431"
      },
      "geometry": {
        "type": "Point",
        "coordinates": [
          -148.58126309394643,
          -0.007426957511324976
        ]
      }
    }
  ]
}